start=new Date('2022-05-08T00:00:00.000Z').valueOf();
sats=[{"PERIOD":"95.592","TIME_SYSTEM":"UTC","EPOCH":"2022-05-07T17:48:53.238240","FILE":"3434287","OBJECT_ID":"2020-035AY","CENTER_NAME":"EARTH","MEAN_ANOMALY":"298.3548","ECCENTRICITY":"0.00016080","COUNTRY_CODE":"US","MEAN_MOTION_DOT":"0.00001406","SEMIMAJOR_AXIS":"6925.358","TLE_LINE1":"1 45703U 20035AY  22127.74228285  .00001406  00000-0  11329-3 0  9991","BSTAR":"0.00011329000000","EPHEMERIS_TYPE":"0","RCS_SIZE":"LARGE","REV_AT_EPOCH":"10743","OBJECT_TYPE":"PAYLOAD","ARG_OF_PERICENTER":"61.7603","APOAPSIS":"548.337","LAUNCH_DATE":"2020-06-04","MEAN_MOTION":"15.06396774","PERIAPSIS":"546.110","GP_ID":"202936294","CLASSIFICATION_TYPE":"U","REF_FRAME":"TEME","ELEMENT_SET_NO":"999","NORAD_CAT_ID":"45703","RA_OF_ASC_NODE":"210.2130","INCLINATION":"53.0549","MEAN_ELEMENT_THEORY":"SGP4","MEAN_MOTION_DDOT":"0.0000000000000","TLE_LINE2":"2 45703  53.0549 210.2130 0001608  61.7603 298.3548 15.06396774107436","DECAY_DATE":null,"OBJECT_NAME":"STARLINK-1407","SITE":"AFETR"},{"RA_OF_ASC_NODE":"240.9914","INCLINATION":"53.0540","MEAN_MOTION_DDOT":"0.0000000000000","MEAN_ELEMENT_THEORY":"SGP4","TLE_LINE2":"2 45704  53.0540 240.9914 0001597  60.3061 299.8086 15.06390971107401","DECAY_DATE":null,"OBJECT_NAME":"STARLINK-1409","SITE":"AFETR","APOAPSIS":"548.347","LAUNCH_DATE":"2020-06-04","MEAN_MOTION":"15.06390971","PERIAPSIS":"546.135","GP_ID":"202923904","CLASSIFICATION_TYPE":"U","REF_FRAME":"TEME","ELEMENT_SET_NO":"999","NORAD_CAT_ID":"45704","SEMIMAJOR_AXIS":"6925.376","TLE_LINE1":"1 45704U 20035AZ  22127.56901548  .00000552  00000-0  55965-4 0  9998","BSTAR":"0.00005596500000","EPHEMERIS_TYPE":"0","RCS_SIZE":"LARGE","REV_AT_EPOCH":"10740","OBJECT_TYPE":"PAYLOAD","ARG_OF_PERICENTER":"60.3061","PERIOD":"95.593","TIME_SYSTEM":"UTC","EPOCH":"2022-05-07T13:39:22.937472","OBJECT_ID":"2020-035AZ","FILE":"3433971","CENTER_NAME":"EARTH","MEAN_ANOMALY":"299.8086","ECCENTRICITY":"0.00015970","COUNTRY_CODE":"US","MEAN_MOTION_DOT":"0.00000552"},{"SEMIMAJOR_AXIS":"6925.369","TLE_LINE1":"1 45705U 20035BA  22127.52941065  .00000209  00000-0  32949-4 0  9999","BSTAR":"0.00003294900000","EPHEMERIS_TYPE":"0","OBJECT_TYPE":"PAYLOAD","ARG_OF_PERICENTER":"66.5600","RCS_SIZE":"LARGE","REV_AT_EPOCH":"10698","EPOCH":"2022-05-07T12:42:21.080160","TIME_SYSTEM":"UTC","PERIOD":"95.593","ECCENTRICITY":"0.00017590","MEAN_ANOMALY":"293.5574","COUNTRY_CODE":"US","MEAN_MOTION_DOT":"0.00000209","OBJECT_ID":"2020-035BA","FILE":"3433646","CENTER_NAME":"EARTH","RA_OF_ASC_NODE":"241.1565","INCLINATION":"53.0536","SITE":"AFETR","MEAN_ELEMENT_THEORY":"SGP4","MEAN_MOTION_DDOT":"0.0000000000000","TLE_LINE2":"2 45705  53.0536 241.1565 0001759  66.5600 293.5574 15.06393485106987","OBJECT_NAME":"STARLINK-1410","DECAY_DATE":null,"PERIAPSIS":"546.015","APOAPSIS":"548.452","LAUNCH_DATE":"2020-06-04","MEAN_MOTION":"15.06393485","ELEMENT_SET_NO":"999","NORAD_CAT_ID":"45705","GP_ID":"202895719","CLASSIFICATION_TYPE":"U","REF_FRAME":"TEME"},{"CENTER_NAME":"EARTH","FILE":"3433971","OBJECT_ID":"2020-035BB","MEAN_MOTION_DOT":"0.00000455","COUNTRY_CODE":"US","ECCENTRICITY":"0.00015790","MEAN_ANOMALY":"309.9507","PERIOD":"95.593","TIME_SYSTEM":"UTC","EPOCH":"2022-05-07T12:30:24.395616","REV_AT_EPOCH":"10780","RCS_SIZE":"LARGE","ARG_OF_PERICENTER":"50.1621","OBJECT_TYPE":"PAYLOAD","EPHEMERIS_TYPE":"0","BSTAR":"0.00004945900000","TLE_LINE1":"1 45706U 20035BB  22127.52111569  .00000455  00000-0  49459-4 0  9995","SEMIMAJOR_AXIS":"6925.369","REF_FRAME":"TEME","CLASSIFICATION_TYPE":"U","GP_ID":"202922904","NORAD_CAT_ID":"45706","ELEMENT_SET_NO":"999","MEAN_MOTION":"15.06393437","LAUNCH_DATE":"2020-06-04","APOAPSIS":"548.327","PERIAPSIS":"546.140","OBJECT_NAME":"STARLINK-1411","DECAY_DATE":null,"TLE_LINE2":"2 45706  53.0541 211.1908 0001579  50.1621 309.9507 15.06393437107801","MEAN_ELEMENT_THEORY":"SGP4","MEAN_MOTION_DDOT":"0.0000000000000","SITE":"AFETR","INCLINATION":"53.0541","RA_OF_ASC_NODE":"211.1908"},{"TLE_LINE1":"1 45707U 20035BC  22127.51743562 -.00000235  00000-0  31558-5 0  9998","SEMIMAJOR_AXIS":"6925.373","EPHEMERIS_TYPE":"0","BSTAR":"0.00000315580000","REV_AT_EPOCH":"10740","RCS_SIZE":"LARGE","OBJECT_TYPE":"PAYLOAD","ARG_OF_PERICENTER":"56.7001","PERIOD":"95.593","TIME_SYSTEM":"UTC","EPOCH":"2022-05-07T12:25:06.437568","CENTER_NAME":"EARTH","OBJECT_ID":"2020-035BC","FILE":"3433646","COUNTRY_CODE":"US","ECCENTRICITY":"0.00016660","MEAN_ANOMALY":"303.4147","MEAN_MOTION_DOT":"-0.00000235","RA_OF_ASC_NODE":"211.2184","INCLINATION":"53.0548","TLE_LINE2":"2 45707  53.0548 211.2184 0001666  56.7001 303.4147 15.06392141107403","MEAN_ELEMENT_THEORY":"SGP4","MEAN_MOTION_DDOT":"0.0000000000000","DECAY_DATE":null,"OBJECT_NAME":"STARLINK-1412","SITE":"AFETR","APOAPSIS":"548.391","MEAN_MOTION":"15.06392141","LAUNCH_DATE":"2020-06-04","PERIAPSIS":"546.084","GP_ID":"202896207","CLASSIFICATION_TYPE":"U","REF_FRAME":"TEME","NORAD_CAT_ID":"45707","ELEMENT_SET_NO":"999"},{"NORAD_CAT_ID":"45708","ELEMENT_SET_NO":"999","GP_ID":"202896250","CLASSIFICATION_TYPE":"U","REF_FRAME":"TEME","PERIAPSIS":"546.163","APOAPSIS":"548.301","MEAN_MOTION":"15.06393982","LAUNCH_DATE":"2020-06-04","SITE":"AFETR","TLE_LINE2":"2 45708  53.0546 211.3215 0001544  66.7165 293.3986 15.06393982107407","MEAN_MOTION_DDOT":"0.0000000000000","MEAN_ELEMENT_THEORY":"SGP4","DECAY_DATE":null,"OBJECT_NAME":"STARLINK-1418","RA_OF_ASC_NODE":"211.3215","INCLINATION":"53.0546","COUNTRY_CODE":"US","MEAN_ANOMALY":"293.3986","ECCENTRICITY":"0.00015440","MEAN_MOTION_DOT":"0.00000249","CENTER_NAME":"EARTH","FILE":"3433648","OBJECT_ID":"2020-035BD","EPOCH":"2022-05-07T11:47:57.437664","TIME_SYSTEM":"UTC","PERIOD":"95.593","OBJECT_TYPE":"PAYLOAD","ARG_OF_PERICENTER":"66.7165","REV_AT_EPOCH":"10740","RCS_SIZE":"LARGE","TLE_LINE1":"1 45708U 20035BD  22127.49163701  .00000249  00000-0  35611-4 0  9994","SEMIMAJOR_AXIS":"6925.367","EPHEMERIS_TYPE":"0","BSTAR":"0.00003561100000"},{"REV_AT_EPOCH":"10777","RCS_SIZE":"LARGE","OBJECT_TYPE":"PAYLOAD","ARG_OF_PERICENTER":"50.8078","TLE_LINE1":"1 45709U 20035BE  22127.52849855  .00000186  00000-0  31386-4 0  9995","SEMIMAJOR_AXIS":"6925.378","EPHEMERIS_TYPE":"0","BSTAR":"0.00003138600000","CENTER_NAME":"EARTH","OBJECT_ID":"2020-035BE","FILE":"3433971","COUNTRY_CODE":"US","ECCENTRICITY":"0.00016350","MEAN_ANOMALY":"309.3056","MEAN_MOTION_DOT":"0.00000186","PERIOD":"95.593","TIME_SYSTEM":"UTC","EPOCH":"2022-05-07T12:41:02.274720","TLE_LINE2":"2 45709  53.0557 211.1733 0001635  50.8078 309.3056 15.06390523107775","MEAN_MOTION_DDOT":"0.0000000000000","MEAN_ELEMENT_THEORY":"SGP4","OBJECT_NAME":"STARLINK-1421","DECAY_DATE":null,"SITE":"AFETR","RA_OF_ASC_NODE":"211.1733","INCLINATION":"53.0557","GP_ID":"202923154","CLASSIFICATION_TYPE":"U","REF_FRAME":"TEME","NORAD_CAT_ID":"45709","ELEMENT_SET_NO":"999","APOAPSIS":"548.375","MEAN_MOTION":"15.06390523","LAUNCH_DATE":"2020-06-04","PERIAPSIS":"546.110"},{"REV_AT_EPOCH":"10740","RCS_SIZE":"LARGE","ARG_OF_PERICENTER":"45.1942","OBJECT_TYPE":"PAYLOAD","EPHEMERIS_TYPE":"0","BSTAR":"0.00006963100000","TLE_LINE1":"1 45710U 20035BF  22127.52480922  .00000755  00000-0  69631-4 0  9999","SEMIMAJOR_AXIS":"6925.369","CENTER_NAME":"EARTH","FILE":"3433650","OBJECT_ID":"2020-035BF","MEAN_MOTION_DOT":"0.00000755","COUNTRY_CODE":"US","MEAN_ANOMALY":"314.9198","ECCENTRICITY":"0.00018710","PERIOD":"95.593","EPOCH":"2022-05-07T12:35:43.516608","TIME_SYSTEM":"UTC","OBJECT_NAME":"STARLINK-1423","DECAY_DATE":null,"TLE_LINE2":"2 45710  53.0543 211.1828 0001871  45.1942 314.9198 15.06393230107403","MEAN_ELEMENT_THEORY":"SGP4","MEAN_MOTION_DDOT":"0.0000000000000","SITE":"AFETR","INCLINATION":"53.0543","RA_OF_ASC_NODE":"211.1828","CLASSIFICATION_TYPE":"U","REF_FRAME":"TEME","GP_ID":"202896261","NORAD_CAT_ID":"45710","ELEMENT_SET_NO":"999","MEAN_MOTION":"15.06393230","LAUNCH_DATE":"2020-06-04","APOAPSIS":"548.530","PERIAPSIS":"545.939"},{"SITE":"AFETR","DECAY_DATE":null,"OBJECT_NAME":"STARLINK-1433","TLE_LINE2":"2 45711  53.0540 210.3700 0001899  43.6081 316.5058 15.06405417107435","MEAN_ELEMENT_THEORY":"SGP4","MEAN_MOTION_DDOT":"0.0000000000000","INCLINATION":"53.0540","RA_OF_ASC_NODE":"210.3700","NORAD_CAT_ID":"45711","ELEMENT_SET_NO":"999","REF_FRAME":"TEME","CLASSIFICATION_TYPE":"U","GP_ID":"202936641","PERIAPSIS":"545.882","MEAN_MOTION":"15.06405417","LAUNCH_DATE":"2020-06-04","APOAPSIS":"548.512","ARG_OF_PERICENTER":"43.6081","OBJECT_TYPE":"PAYLOAD","REV_AT_EPOCH":"10743","RCS_SIZE":"LARGE","EPHEMERIS_TYPE":"0","BSTAR":"0.00010161000000","TLE_LINE1":"1 45711U 20035BG  22127.70540582  .00001232  00000-0  10161-3 0  9993","SEMIMAJOR_AXIS":"6925.332","MEAN_MOTION_DOT":"0.00001232","COUNTRY_CODE":"US","MEAN_ANOMALY":"316.5058","ECCENTRICITY":"0.00018990","CENTER_NAME":"EARTH","FILE":"3434295","OBJECT_ID":"2020-035BG","EPOCH":"2022-05-07T16:55:47.062848","TIME_SYSTEM":"UTC","PERIOD":"95.592"},{"PERIOD":"95.591","EPOCH":"2022-05-07T16:50:29.477184","TIME_SYSTEM":"UTC","CENTER_NAME":"EARTH","FILE":"3434296","OBJECT_ID":"2020-035BH","MEAN_MOTION_DOT":"0.00004100","COUNTRY_CODE":"US","ECCENTRICITY":"0.00017500","MEAN_ANOMALY":"297.5329","EPHEMERIS_TYPE":"0","BSTAR":"0.00029388000000","TLE_LINE1":"1 45712U 20035BH  22127.70173006  .00004100  00000-0  29388-3 0  9995","SEMIMAJOR_AXIS":"6925.316","REV_AT_EPOCH":"10743","RCS_SIZE":"LARGE","ARG_OF_PERICENTER":"62.5837","OBJECT_TYPE":"PAYLOAD","MEAN_MOTION":"15.06410482","LAUNCH_DATE":"2020-06-04","APOAPSIS":"548.393","PERIAPSIS":"545.970","CLASSIFICATION_TYPE":"U","REF_FRAME":"TEME","GP_ID":"202936379","NORAD_CAT_ID":"45712","ELEMENT_SET_NO":"999","INCLINATION":"53.0538","RA_OF_ASC_NODE":"210.3972","DECAY_DATE":null,"OBJECT_NAME":"STARLINK-1434","TLE_LINE2":"2 45712  53.0538 210.3972 0001750  62.5837 297.5329 15.06410482107436","MEAN_MOTION_DDOT":"0.0000000000000","MEAN_ELEMENT_THEORY":"SGP4","SITE":"AFETR"}];
